STARLINK-31232          
1 58831U 24017F   26163.17952116  .00000466  00000+0  26764-4 0  9993
2 58831  53.1598 124.6734 0001201  89.5156 270.5983 15.31707692134534
STARLINK-31263          
1 58832U 24017G   26163.15153070  .00003675  00000+0  11988-3 0  9990
2 58832  53.1604 114.5606 0001408  95.8715 264.2448 15.34393294134784
STARLINK-31171          
1 58834U 24017J   26163.14515850  .00004161  00000+0  15262-3 0  9999
2 58834  53.1591 102.0261 0001108  91.0285 269.0842 15.30178070134844
STARLINK-31246          
1 58835U 24017K   26163.17523871  .00000637  00000+0  33637-4 0  9996
2 58835  53.1591 125.3523 0001190  85.9147 274.1990 15.30199337134529
STARLINK-31251          
1 58836U 24017L   26163.18262670  .00000726  00000+0  36624-4 0  9993
2 58836  53.1603 125.4009 0001364  93.2949 266.8208 15.30198239134631
STARLINK-31249          
1 58838U 24017N   26163.18895890 -.00000197  00000+0  54641-5 0  9994
2 58838  53.1604 125.4406 0001259  95.3976 264.7169 15.30196867134527
STARLINK-31250          
1 58839U 24017P   26163.14730786 -.00000557  00000+0 -53604-5 0  9992
2 58839  53.1603 114.5298 0001228  84.8847 275.2296 15.34394821134624
STARLINK-31248          
1 58840U 24017Q   26163.23364265 -.00000231  00000+0  43017-5 0  9994
2 58840  53.1609 136.3482 0001527  97.5542 262.5634 15.34402547134488
STARLINK-31236          
1 58841U 24017R   26163.19526015  .00003942  00000+0  14496-3 0  9991
2 58841  53.1585 125.4736 0000787  43.6714 316.4349 15.30237277134522
STARLINK-31228          
1 58842U 24017S   26163.19212568  .00000091  00000+0  15196-4 0  9998
2 58842  53.1605 125.4600 0001317 102.7179 257.3970 15.30195793134527
STARLINK-31280          
1 58843U 24017T   26163.19845771 -.00000120  00000+0  80703-5 0  9998
2 58843  53.1591 125.4983 0001340  97.9213 262.1940 15.30195101134520
STARLINK-31269          
1 58844U 24017U   26163.29510290  .00000769  00000+0  38078-4 0  9990
2 58844  53.1596 215.0151 0001216  89.4007 270.7133 15.30198186133252
STARLINK-31264          
1 58845U 24017V   26163.30976925  .00000486  00000+0  28547-4 0  9990
2 58845  53.1593 214.3974 0001171  92.4592 267.6543 15.30194237133262
STARLINK-31273          
1 58846U 24017W   26163.13631007 -.00000650  00000+0 -98074-5 0  9999
2 58846  53.1598 125.8184 0001442  92.7956 267.3209 15.30192562134519
STARLINK-31262          
1 58847U 24017X   26162.46807095 -.00001699  00000+0 -45270-4 0  9990
2 58847  53.1600 218.3900 0001235  87.8565 272.2577 15.30189693133130
AAC-HSI-SAT3            
1 58848U 23174DH  26163.12359765  .00002201  00000+0  11862-3 0  9991
2 58848  97.3413 222.6833 0011311  34.2302 325.9658 15.15753959143139
2024-018A               
1 58849U 24018A   26163.31475634  .00001824  00000+0  21029-3 0  9991
2 58849  58.6859 246.8951 0437125  99.9346 265.1299 14.39505576124471
2024-018B               
1 58850U 24018B   26163.32225116  .00002860  00000+0  30290-3 0  9993
2 58850  58.6922 235.0724 0420120 102.8981 261.9310 14.43831789124693
2024-018C               
1 58851U 24018C   26163.28187245  .00002150  00000+0  24148-3 0  9996
2 58851  58.6826 240.5862 0429843 102.3049 262.6438 14.41047353124583
STARLINK-31238          
1 58853U 24019A   26162.05293768  .00000571  00000+0  30276-4 0  9996
2 58853  43.0028  81.4347 0001151 265.4912  94.5809 15.27580318133363
STARLINK-31158          
1 58854U 24019B   26161.07856853  .00001020  00000+0  46585-4 0  9998
2 58854  43.0011  87.0214 0001254 272.9805  87.0903 15.27579040133215
STARLINK-31237          
1 58855U 24019C   26163.02860287 -.00000107  00000+0  56187-5 0  9998
2 58855  43.0029  75.8779 0001215 251.2691 108.8029 15.27575219133514
STARLINK-31244          
1 58856U 24019D   26162.45682442  .00000220  00000+0  17529-4 0  9991
2 58856  43.0029  79.3144 0000842 244.5197 115.5568 15.27576970133429
STARLINK-31226          
1 58858U 24019F   26163.06070978  .00002035  00000+0  83418-4 0  9992
2 58858  43.0067  76.1052 0000875 274.9201  85.1551 15.27588716133510
STARLINK-31197          
1 58859U 24019G   26162.48380095 -.00000082  00000+0  65620-5 0  9999
2 58859  43.0040  79.5159 0002651 268.1580  91.8968 15.27578909133425
STARLINK-31213          
1 58860U 24019H   26162.45811218 -.00000070  00000+0  69857-5 0  9997
2 58860  43.0128  79.3181 0001282 258.4369 101.6339 15.27584268133420
STARLINK-31199          
1 58861U 24019J   26162.45427059  .00007699  00000+0  28906-3 0  9995
2 58861  43.0024  79.2904 0001348 258.0072 102.0629 15.27573133133424
STARLINK-31200          
1 58862U 24019K   26163.17478756 -.00001661  00000+0 -50807-4 0  9997
2 58862  43.0014  75.2353 0001709 282.0624  78.0036 15.27591849133539
STARLINK-31149          
1 58863U 24019L   26162.49394411  .00000837  00000+0  39945-4 0  9999
2 58863  43.0043  78.7322 0001372 264.2949  95.7747 15.27574010133439
STARLINK-31242          
1 58864U 24019M   26162.46195690  .00006242  00000+0  23623-3 0  9996
2 58864  42.9992  79.3542 0000840 250.3094 109.7667 15.27567336133427
