OBJECT_NAME,OBJECT_ID,EPOCH,MEAN_MOTION,ECCENTRICITY,INCLINATION,RA_OF_ASC_NODE,ARG_OF_PERICENTER,MEAN_ANOMALY,EPHEMERIS_TYPE,CLASSIFICATION_TYPE,NORAD_CAT_ID,ELEMENT_SET_NO,REV_AT_EPOCH,BSTAR,MEAN_MOTION_DOT,MEAN_MOTION_DDOT
STARLINK-31232,2024-017F,2026-06-12T04:18:30.628224,15.31707692,.00012016,53.1598,124.6734,89.5156,270.5983,0,U,58831,999,13453,.26763891E-4,.466E-5,0
STARLINK-31263,2024-017G,2026-06-12T03:38:12.252480,15.34393294,.00014082,53.1604,114.5606,95.8715,264.2448,0,U,58832,999,13478,.11987953E-3,.3675E-4,0
STARLINK-31171,2024-017J,2026-06-12T03:29:01.694400,15.30178070,.00011089,53.1591,102.0261,91.0285,269.0842,0,U,58834,999,13484,.15261624E-3,.4161E-4,0
STARLINK-31246,2024-017K,2026-06-12T04:12:20.624544,15.30199337,.00011909,53.1591,125.3523,85.9147,274.1990,0,U,58835,999,13452,.33637476E-4,.637E-5,0
STARLINK-31251,2024-017L,2026-06-12T04:22:58.946880,15.30198239,.00013649,53.1603,125.4009,93.2949,266.8208,0,U,58836,999,13463,.36624318E-4,.726E-5,0
STARLINK-31249,2024-017N,2026-06-12T04:32:06.048960,15.30196867,.00012595,53.1604,125.4406,95.3976,264.7169,0,U,58838,999,13452,.5464061E-5,-.197E-5,0
STARLINK-31250,2024-017P,2026-06-12T03:32:07.399104,15.34394821,.00012287,53.1603,114.5298,84.8847,275.2296,0,U,58839,999,13462,-.5360413E-5,-.557E-5,0
STARLINK-31248,2024-017Q,2026-06-12T05:36:26.724960,15.34402547,.00015278,53.1609,136.3482,97.5542,262.5634,0,U,58840,999,13448,.4301689E-5,-.231E-5,0
STARLINK-31236,2024-017R,2026-06-12T04:41:10.476960,15.30237277,.00007879,53.1585,125.4736,43.6714,316.4349,0,U,58841,999,13452,.14496307E-3,.3942E-4,0
STARLINK-31228,2024-017S,2026-06-12T04:36:39.658752,15.30195793,.00013179,53.1605,125.4600,102.7179,257.3970,0,U,58842,999,13452,.15195741E-4,.91E-6,0
STARLINK-31280,2024-017T,2026-06-12T04:45:46.746144,15.30195101,.00013403,53.1591,125.4983,97.9213,262.1940,0,U,58843,999,13452,.8070332E-5,-.12E-5,0
STARLINK-31269,2024-017U,2026-06-12T07:04:56.890560,15.30198186,.00012167,53.1596,215.0151,89.4007,270.7133,0,U,58844,999,13325,.38078376E-4,.769E-5,0
STARLINK-31264,2024-017V,2026-06-12T07:26:04.063200,15.30194237,.00011715,53.1593,214.3974,92.4592,267.6543,0,U,58845,999,13326,.28546635E-4,.486E-5,0
STARLINK-31273,2024-017W,2026-06-12T03:16:17.190048,15.30192562,.00014422,53.1598,125.8184,92.7956,267.3209,0,U,58846,999,13451,-.9807431E-5,-.65E-5,0
STARLINK-31262,2024-017X,2026-06-11T11:14:01.330080,15.30189693,.0001235,53.1600,218.3900,87.8565,272.2577,0,U,58847,999,13313,-.4527E-4,-.1699E-4,0
AAC-HSI-SAT3,2023-174DH,2026-06-12T02:57:58.836960,15.15753959,.00113113,97.3413,222.6833,34.2302,325.9658,0,U,58848,999,14313,.11861762E-3,.2201E-4,0
2024-018A,2024-018A,2026-06-12T07:33:14.947776,14.39505576,.04371254,58.6859,246.8951,99.9346,265.1299,0,U,58849,999,12447,.21029163E-3,.1824E-4,0
2024-018B,2024-018B,2026-06-12T07:44:02.500224,14.43831789,.04201208,58.6922,235.0724,102.8981,261.9310,0,U,58850,999,12469,.30289843E-3,.286E-4,0
2024-018C,2024-018C,2026-06-12T06:45:53.779680,14.41047353,.04298436,58.6826,240.5862,102.3049,262.6438,0,U,58851,999,12458,.24148135E-3,.215E-4,0
STARLINK-31238,2024-019A,2026-06-11T01:16:13.815552,15.27580318,.0001151,43.0028,81.4347,265.4912,94.5809,0,U,58853,999,13336,.30275684E-4,.571E-5,0
STARLINK-31158,2024-019B,2026-06-10T01:53:08.320992,15.27579040,.00012545,43.0011,87.0214,272.9805,87.0903,0,U,58854,999,13321,.46584887E-4,.102E-4,0
STARLINK-31237,2024-019C,2026-06-12T00:41:11.287968,15.27575219,.00012156,43.0029,75.8779,251.2691,108.8029,0,U,58855,999,13351,.561869E-5,-.107E-5,0
STARLINK-31244,2024-019D,2026-06-11T10:57:49.629888,15.27576970,.0000842,43.0029,79.3144,244.5197,115.5568,0,U,58856,999,13342,.17529E-4,.22E-5,0
STARLINK-31226,2024-019F,2026-06-12T01:27:25.324992,15.27588716,.00008757,43.0067,76.1052,274.9201,85.1551,0,U,58858,999,13351,.83418153E-4,.2035E-4,0
STARLINK-31197,2024-019G,2026-06-11T11:36:40.402080,15.27578909,.0002651,43.0040,79.5159,268.1580,91.8968,0,U,58859,999,13342,.6562E-5,-.82E-6,0
STARLINK-31213,2024-019H,2026-06-11T10:59:40.892352,15.27584268,.0001282,43.0128,79.3181,258.4369,101.6339,0,U,58860,999,13342,.69857E-5,-.7E-6,0
STARLINK-31199,2024-019J,2026-06-11T10:54:08.978976,15.27573133,.0001348,43.0024,79.2904,258.0072,102.0629,0,U,58861,999,13342,.28906E-3,.7699E-4,0
STARLINK-31200,2024-019K,2026-06-12T04:11:41.645184,15.27591849,.00017096,43.0014,75.2353,282.0624,78.0036,0,U,58862,999,13353,-.50807412E-4,-.1661E-4,0
STARLINK-31149,2024-019L,2026-06-11T11:51:16.771104,15.27574010,.0001372,43.0043,78.7322,264.2949,95.7747,0,U,58863,999,13343,.39945E-4,.837E-5,0
STARLINK-31242,2024-019M,2026-06-11T11:05:13.076160,15.27567336,.000084,42.9992,79.3542,250.3094,109.7667,0,U,58864,999,13342,.23623E-3,.6242E-4,0
